[{"OBJECT_NAME":"STARLINK-1448","OBJECT_ID":"2020-035J","EPOCH":"2026-03-10T00:00:02.999808","MEAN_MOTION":15.52376322,"ECCENTRICITY":0.00079659,"INCLINATION":53.0511,"RA_OF_ASC_NODE":51.24,"ARG_OF_PERICENTER":79.1097,"MEAN_ANOMALY":73.0484,"EPHEMERIS_TYPE":0,"CLASSIFICATION_TYPE":"U","NORAD_CAT_ID":45665,"ELEMENT_SET_NO":999,"REV_AT_EPOCH":591,"BSTAR":0.001926692,"MEAN_MOTION_DOT":0.00121047,"MEAN_MOTION_DDOT":0},{"OBJECT_NAME":"STARLINK-32262","OBJECT_ID":"2024-155Q","EPOCH":"2026-03-09T22:00:01.999584","MEAN_MOTION":15.517344,"ECCENTRICITY":0.00087368,"INCLINATION":53.1515,"RA_OF_ASC_NODE":110.6571,"ARG_OF_PERICENTER":9.9972,"MEAN_ANOMALY":355.7695,"EPHEMERIS_TYPE":0,"CLASSIFICATION_TYPE":"U","NORAD_CAT_ID":60938,"ELEMENT_SET_NO":999,"REV_AT_EPOCH":584,"BSTAR":0.0047689737,"MEAN_MOTION_DOT":0.00300228,"MEAN_MOTION_DDOT":0}]
